#cP2009  3 31  0  0  0.00000000      96 ORBIT IGS05 HLM  IGS
## 1525 172800.00000000   900.00000000 54921 0.0000000000000
+   32   G01G02G03G04G05G06G07G08G09G10G11G12G13G14G15G16G17
+        G18G19G20G21G22G23G24G25G26G27G28G29G30G31G32  0  0
+          0  0  0  0  0  0  0  0  0  0  0  0  0  0  0  0  0
+          0  0  0  0  0  0  0  0  0  0  0  0  0  0  0  0  0
+          0  0  0  0  0  0  0  0  0  0  0  0  0  0  0  0  0
++         0  2  2  2  3  2  2  2  2  2  3  2  2  2  2  2  3
++         3  2  3  2  2  2  2  2  2  2  2  3  2  3  3  0  0
++         0  0  0  0  0  0  0  0  0  0  0  0  0  0  0  0  0
++         0  0  0  0  0  0  0  0  0  0  0  0  0  0  0  0  0
++         0  0  0  0  0  0  0  0  0  0  0  0  0  0  0  0  0
%c G  cc GPS ccc cccc cccc cccc cccc ccccc ccccc ccccc ccccc
%c cc cc ccc ccc cccc cccc cccc cccc ccccc ccccc ccccc ccccc
%f  1.2500000  1.025000000  0.00000000000  0.000000000000000
%f  0.0000000  0.000000000  0.00000000000  0.000000000000000
%i    0    0    0    0      0      0      0      0         0
%i    0    0    0    0      0      0      0      0         0
/* FINAL ORBIT COMBINATION FROM WEIGHTED AVERAGE OF:        
/* cod emr esa gfz grg jpl mit ngs sio                      
/* REFERENCED TO IGS TIME (IGST) AND TO WEIGHTED MEAN POLE: 
/* PCV:IGS05_1525 OL/AL:FES2004  NONE     Y  ORB:CMB CLK:CMB
*  2009  3 31 12  0  0.00000000
PG01 -13196.588555  13935.517992  18179.289359 999999.999999
PG02  -5337.139657 -18742.000252  18110.866551    153.973306  8  5  4 101       
PG03   1108.739374  17530.088236 -20138.044901    373.016219  6  7  4 113       
PG04   9080.917744 -12678.336973  21374.722954    -33.431071  2  6  4 119       
PG05 -14298.112265 -11634.635021  18865.633012    -20.741710  8  9  7 119       
PG06  -5112.742076  18517.703267 -18131.970707     58.666310  6  6  6 118       
PG07  23042.452528   4255.365428 -12629.861275     21.024169  9  7  7 101       
PG08  15577.485046  -5771.907824 -20895.605371   -196.418305  7  5  6 110       
PG09 -21267.403781 -15629.731908  -4066.736117     48.287950  8  4  6 132       
PG10  -2610.494509 -25577.493967  -6062.647039    -13.575581  5  5  7 137       
PG11  23789.294449  11781.582586  -3468.380733      2.860030  8  6  7 108       
PG12 -12349.464450 -14314.044443  18778.031639   -299.917716  6  6  8 127       
PG13  24438.202356  -4555.569228   9216.411945    293.169050  9  3  4 134       
PG14 -20006.110573  15459.865579   8066.090379   -132.884138  7  6  3  87       
PG15  -9003.762029 -12464.314606 -21633.643238   -275.616434  6  8  6 140       
PG16  -1559.953937  26385.022404    -96.828636     63.263992  9  3  4 126       
PG17  20907.487819 -15141.129607   5870.563053     52.302729 10  7  6 130       
PG18 -15154.330341   7816.583153 -20061.254899    -69.820592 10  8  8 131       
PG19  11087.311035  11451.432366 -21213.434302     29.434744  5  6  6 157       
PG20  13828.185036  11706.821418  19305.926004     86.648814  8  6  6 157       
PG21 -21952.104431  -1123.558619 -15092.312155     21.694265  9  4  4 130       
PG22 -11978.015728  18666.700557 -14411.313454    202.482761  6  7  5 137       
PG23  19629.904303   3428.772650  17644.343790    388.955283 10  5  4 107       
PG24 -22843.672425 -12606.674977  -4010.881747    177.559812  7  6  5 122       
PG25  24466.124068   8360.371395  -5249.973071    332.641790  8  5  6 100       
PG26  -9835.437611 -11559.469677 -22403.750104     54.274168  8  7  9 142       
PG27  -8203.332739 -17877.388494 -17173.089289     36.864120  5  6  6  81       
PG28  12328.193286 -16544.145383 -16114.197564    -23.820938  9  8  7 114       
PG29 -24070.702968   3512.074946  10727.027141      4.501903  8  4  6  96       
PG30 -15237.196280  -1356.301750  21353.415921    136.033329  6  5  5 143       
PG31  -6178.116773  13849.062655  22009.411050    -56.376205  6  6  7 120       
PG32   8640.033235  19854.274887  15944.009989    280.584254  7  5  7  92       
*  2009  3 31 12 15  0.00000000
PG01 -13329.588094  11755.855482  19574.268424 999999.999999
PG02  -3392.658409 -17784.580816  19449.564090    153.972804  8  5  4  97       
PG03   -762.114967  18703.390233 -19019.753488    373.019683  5  6  4 101       
PG04  11190.793649 -11405.839990  21124.041447    -33.444123  2  6  3 119       
PG05 -14328.027305 -13769.998557  17380.955926    -20.751177  9  9  7 108       
PG06  -6933.081615  19428.210882 -16515.897934     58.682632  6  6  6 131       
PG07  24063.456819   5081.505185 -10190.273278     21.023751  9  7  7 114       
PG08  17457.337039  -4454.802012 -19739.142375   -196.418306  7  5  6 112       
PG09 -20694.540172 -15536.722671  -6857.035881     48.290763  8  5  6 132       
PG10  -2314.751189 -26088.885119  -3257.866320    -13.575238  5  5  7 145       
PG11  23160.085425  12005.162298  -6084.372873      2.859200  7  6  7 113       
PG12 -12196.069023 -16349.227380  17149.261982   -299.913645  6  5  7 125       
PG13  23412.011224  -3889.659838  11791.423807    293.170130  9  2  4 133       
PG14 -20751.361100  15651.995113   5284.673006   -132.878993  7  6  3  82       
PG15  -6860.674000 -13719.435499 -21654.652424   -275.620589  5  8  6 139       
PG16  -1809.307382  26230.003453   2781.014862     63.261199  8  3  4 131       
PG17  21480.375447 -15150.311214   3066.804550     52.304143 10  7  6 129       
PG18 -15166.464603   5416.554883 -20853.469868    -69.817602 10  8  9 131       
PG19   8874.808880  12534.424373 -21615.456945     29.434028  4  5  6 159       
PG20  13710.463325  13867.413034  17922.459439     86.647792  7  5  6 157       
PG21 -23228.110366  -2159.084938 -13013.243061     21.692212  9  4  4 134       
PG22 -12123.782181  16865.453771 -16363.228145    202.481769  8  7  5 139       
PG23  17847.128446   4553.976799  19186.168773    388.955769  9  5  3 108       
PG24 -22940.350478 -13031.560431  -1179.530205    177.562897  7  6  5 115       
PG25  24796.632376   8786.720114  -2410.740754    332.661554  8  4  6 119       
PG26  -7642.137761 -12641.798232 -22633.144550     54.276155  7  6  9 132       
PG27  -6201.215705 -17010.724122 -18763.556270     36.867570  5  5  6  84       
PG28  12429.222840 -14508.050615 -17884.907470    -23.820977 10  8  8 130       
PG29 -22981.434226   2684.879029  13116.133011      4.505606  8  4  6 102       
PG30 -15292.170049  -3859.986959  21018.941030    136.036827  6  5  4 145       
PG31  -8317.888530  12609.997020  22062.095791    -56.377426  5  6  6 125       
PG32   8334.500094  21465.407529  13847.772133    280.580282  7  5  7 104       
*  2009  3 31 12 30  0.00000000
PG01 -13582.133298   9446.776047  20627.784880 999999.999999
PG02  -1281.023428 -16864.274211  20454.022901    153.972530  8  4  4  98       
PG03  -2469.177326  19874.585693 -17578.784502    373.024472  5  5  5  99       
PG04  13313.226974 -10262.421754  20506.857491    -33.457567  3  7  2 117       
PG05 -14436.333803 -15713.980161  15591.729895    -20.760411 10  8  7  85       
PG06  -8544.306563  20307.950582 -14611.238108     58.698588  7  5  6 118       
PG07  24872.600162   5722.265274  -7576.509134     21.023422  9  6  7 107       
PG08  19277.910368  -3324.704866 -18249.240865   -196.420037  7  5  6 103       
PG09 -19843.521210 -15342.681239  -9532.129623     48.292941  8  6  6 128       
PG10  -2035.301951 -26292.161188   -395.966093    -13.576466  6  5  7 140       
PG11  22267.527135  12178.730309  -8598.279850      2.857783  7  5  7 106       
PG12 -12141.793336 -18189.488342  15228.288912   -299.909696  6  5  6 121       
PG13  22181.026261  -3024.665312  14162.128775    293.171196  9  2  4 133       
PG14 -21209.741726  15719.749789   2411.941579   -132.873696  7  6  3  68       
PG15  -4800.050961 -15072.891530 -21302.089930   -275.624633  5  8  6 148       
PG16  -2075.688564  25763.475757   5610.343458     63.258526  8  4  4 134       
PG17  21779.547876 -15018.054527    209.692598     52.305546 10  7  5 130       
PG18 -15295.839430   2953.521164 -21278.161674    -69.814404 11  8  9 137       
PG19   6697.448781  13742.830900 -21643.693798     29.433268  4  4  6 159       
PG20  13686.214218  15856.067457  16227.977138     86.646601  6  5  5 160       
PG21 -24334.640117  -3010.778921 -10713.979240     21.690749  9  4  4 132       
PG22 -12359.714058  14867.363015 -18029.767546    202.481999  9  7  6 143       
PG23  15994.673858   5859.540237  20399.178451    388.956067  8  5  3 112       
PG24 -22778.411049 -13288.383856   1672.481383    177.566685  7  6  5 108       
PG25  24846.329543   9072.026945    470.695000    332.681257  8  2  6 104       
PG26  -5507.743404 -13856.218994 -22492.900174     54.277540  7  6  8 134       
PG27  -4001.596429 -16183.691616 -20012.814825     36.869468  5  4  6  81       
PG28  12639.226444 -12293.519914 -19333.896350    -23.820928 10  8  8 122       
PG29 -21717.830277   1668.512531  15280.444632      4.509416  7  4  6 101       
PG30 -15465.625077  -6296.622526  20311.062470    136.039575  6  5  4 145       
PG31 -10507.592415  11496.789521  21742.684131    -56.378505  5  6  6 120       
PG32   8122.726631  22845.622699  11521.358801    280.576114  8  4  7 104       
EOF
